{"type": "FeatureCollection", "features": [ {"type": "Feature", "properties": {"norad_id": 30411, "name": "FENGYUN 1C DEB", "group": "fengyun-1c-debris", "lat": 5.213181769199272, "lon": 83.6897716605393, "alt_km": 859.7814292707926, "timestamp": "2025-12-18T13:51:49.960068+00:00", "meta": {"OBJECT_NAME": "FENGYUN 1C DEB", "OBJECT_ID": "1999-025AEA", "EPOCH": "2025-12-17T16:34:46.741728", "MEAN_MOTION": 14.07674164, "ECCENTRICITY": 0.01230798, "INCLINATION": 98.5809, "RA_OF_ASC_NODE": 262.0576, "ARG_OF_PERICENTER": 92.6924, "MEAN_ANOMALY": 268.8341, "EPHEMERIS_TYPE": 0, "CLASSIFICATION_TYPE": "U", "NORAD_CAT_ID": 30411, "ELEMENT_SET_NO": 999, "REV_AT_EPOCH": 96053, "BSTAR": 0.0015363499, "MEAN_MOTION_DOT": 2.743e-05, "MEAN_MOTION_DDOT": 0}, "tle": {"line1": "1 30411U 99025AEA 25351.69081877  .00002743  00000+0  15363-2 0  9991", "line2": "2 30411  98.5809 262.0576 0123079  92.6924 268.8341 14.07674164960537"}}, "geometry": {"type": "Point", "coordinates": [83.6897716605393, 5.213181769199272]}}, {"type": "Feature", "properties": {"norad_id": 30413, "name": "FENGYUN 1C DEB", "group": "fengyun-1c-debris", "lat": 11.074377334513379, "lon": -134.66994326984008, "alt_km": 815.9242836273643, "timestamp": "2025-12-18T13:51:49.960079+00:00", "meta": {"OBJECT_NAME": "FENGYUN 1C DEB", "OBJECT_ID": "1999-025AEC", "EPOCH": "2025-12-18T02:49:46.476192", "MEAN_MOTION": 14.32592085, "ECCENTRICITY": 0.00447853, "INCLINATION": 102.0629, "RA_OF_ASC_NODE": 227.0914, "ARG_OF_PERICENTER": 202.4249, "MEAN_ANOMALY": 318.9705, "EPHEMERIS_TYPE": 0, "CLASSIFICATION_TYPE": "U", "NORAD_CAT_ID": 30413, "ELEMENT_SET_NO": 999, "REV_AT_EPOCH": 97216, "BSTAR": 0.0016413902, "MEAN_MOTION_DOT": 4.435e-05, "MEAN_MOTION_DDOT": 0}, "tle": {"line1": "1 30413U 99025AEC 25352.11789903  .00004435  00000+0  16414-2 0  9994", "line2": "2 30413 102.0629 227.0914 0044785 202.4249 318.9705 14.32592085972166"}}, "geometry": {"type": "Point", "coordinates": [-134.66994326984008, 11.074377334513379]}}, {"type": "Feature", "properties": {"norad_id": 30414, "name": "FENGYUN 1C DEB", "group": "fengyun-1c-debris", "lat": 47.799139955406254, "lon": -19.72209881357879, "alt_km": 741.5832947494564, "timestamp": "2025-12-18T13:51:49.960090+00:00", "meta": {"OBJECT_NAME": "FENGYUN 1C DEB", "OBJECT_ID": "1999-025AED", "EPOCH": "2025-12-17T22:10:59.380896", "MEAN_MOTION": 14.34227905, "ECCENTRICITY": 0.00582247, "INCLINATION": 99.0799, "RA_OF_ASC_NODE": 149.4343, "ARG_OF_PERICENTER": 173.8651, "MEAN_ANOMALY": 186.3258, "EPHEMERIS_TYPE": 0, "CLASSIFICATION_TYPE": "U", "NORAD_CAT_ID": 30414, "ELEMENT_SET_NO": 999, "REV_AT_EPOCH": 97161, "BSTAR": 0.0018807806, "MEAN_MOTION_DOT": 5.332e-05, "MEAN_MOTION_DDOT": 0}, "tle": {"line1": "1 30414U 99025AED 25351.92429839  .00005332  00000+0  18808-2 0  9998", "line2": "2 30414  99.0799 149.4343 0058224 173.8651 186.3258 14.34227905971611"}}, "geometry": {"type": "Point", "coordinates": [-19.72209881357879, 47.799139955406254]}}, {"type": "Feature", "properties": {"norad_id": 30415, "name": "FENGYUN 1C DEB", "group": "fengyun-1c-debris", "lat": -70.3330192019357, "lon": 81.24584958083334, "alt_km": 861.0166047473685, "timestamp": "2025-12-18T13:51:49.960100+00:00", "meta": {"OBJECT_NAME": "FENGYUN 1C DEB", "OBJECT_ID": "1999-025AEE", "EPOCH": "2025-12-17T17:47:54.403296", "MEAN_MOTION": 13.68949692, "ECCENTRICITY": 0.02394125, "INCLINATION": 99.6459, "RA_OF_ASC_NODE": 51.9952, "ARG_OF_PERICENTER": 256.4516, "MEAN_ANOMALY": 231.195, "EPHEMERIS_TYPE": 0, "CLASSIFICATION_TYPE": "U", "NORAD_CAT_ID": 30415, "ELEMENT_SET_NO": 999, "REV_AT_EPOCH": 93946, "BSTAR": 0.0012069784, "MEAN_MOTION_DOT": 1.226e-05, "MEAN_MOTION_DDOT": 0}, "tle": {"line1": "1 30415U 99025AEE 25351.74160189  .00001226  00000+0  12070-2 0  9992", "line2": "2 30415  99.6459  51.9952 0239412 256.4516 231.1950 13.68949692939467"}}, "geometry": {"type": "Point", "coordinates": [81.24584958083334, -70.3330192019357]}}, {"type": "Feature", "properties": {"norad_id": 30416, "name": "FENGYUN 1C DEB", "group": "fengyun-1c-debris", "lat": 28.05267406660513, "lon": 12.05809709538281, "alt_km": 916.483817160185, "timestamp": "2025-12-18T13:51:49.960111+00:00", "meta": {"OBJECT_NAME": "FENGYUN 1C DEB", "OBJECT_ID": "1999-025AEF", "EPOCH": "2025-12-18T00:01:52.591296", "MEAN_MOTION": 14.02637792, "ECCENTRICITY": 0.00556834, "INCLINATION": 98.8351, "RA_OF_ASC_NODE": 16.2533, "ARG_OF_PERICENTER": 175.2533, "MEAN_ANOMALY": 184.9173, "EPHEMERIS_TYPE": 0, "CLASSIFICATION_TYPE": "U", "NORAD_CAT_ID": 30416, "ELEMENT_SET_NO": 999, "REV_AT_EPOCH": 96698, "BSTAR": 0.00047261072, "MEAN_MOTION_DOT": 6.96e-06, "MEAN_MOTION_DDOT": 0}, "tle": {"line1": "1 30416U 99025AEF 25352.00130314  .00000696  00000+0  47261-3 0  9991", "line2": "2 30416  98.8351  16.2533 0055683 175.2533 184.9173 14.02637792966985"}}, "geometry": {"type": "Point", "coordinates": [12.05809709538281, 28.05267406660513]}}, {"type": "Feature", "properties": {"norad_id": 30417, "name": "FENGYUN 1C DEB", "group": "fengyun-1c-debris", "lat": 40.2348383823105, "lon": 169.84574406357464, "alt_km": 802.216510705166, "timestamp": "2025-12-18T13:51:49.960121+00:00", "meta": {"OBJECT_NAME": "FENGYUN 1C DEB", "OBJECT_ID": "1999-025AEG", "EPOCH": "2025-12-17T22:13:35.077152", "MEAN_MOTION": 14.14668594, "ECCENTRICITY": 0.00645771, "INCLINATION": 98.6932, "RA_OF_ASC_NODE": 341.7734, "ARG_OF_PERICENTER": 105.374, "MEAN_ANOMALY": 316.898, "EPHEMERIS_TYPE": 0, "CLASSIFICATION_TYPE": "U", "NORAD_CAT_ID": 30417, "ELEMENT_SET_NO": 999, "REV_AT_EPOCH": 97462, "BSTAR": 0.00023278137, "MEAN_MOTION_DOT": 4.15e-06, "MEAN_MOTION_DDOT": 0}, "tle": {"line1": "1 30417U 99025AEG 25351.92610043  .00000415  00000+0  23278-3 0  9995", "line2": "2 30417  98.6932 341.7734 0064577 105.3740 316.8980 14.14668594974623"}}, "geometry": {"type": "Point", "coordinates": [169.84574406357464, 40.2348383823105]}}, {"type": "Feature", "properties": {"norad_id": 30418, "name": "FENGYUN 1C DEB", "group": "fengyun-1c-debris", "lat": -60.99434383688164, "lon": 169.2921879326668, "alt_km": 695.5614690775583, "timestamp": "2025-12-18T13:51:49.960132+00:00", "meta": {"OBJECT_NAME": "FENGYUN 1C DEB", "OBJECT_ID": "1999-025AEH", "EPOCH": "2025-12-18T05:13:44.033664", "MEAN_MOTION": 14.84284214, "ECCENTRICITY": 0.01111118, "INCLINATION": 98.8399, "RA_OF_ASC_NODE": 152.5922, "ARG_OF_PERICENTER": 98.2521, "MEAN_ANOMALY": 78.6263, "EPHEMERIS_TYPE": 0, "CLASSIFICATION_TYPE": "U", "NORAD_CAT_ID": 30418, "ELEMENT_SET_NO": 999, "REV_AT_EPOCH": 673, "BSTAR": 0.0006732932, "MEAN_MOTION_DOT": 6.232e-05, "MEAN_MOTION_DDOT": 0}, "tle": {"line1": "1 30418U 99025AEH 25352.21787076  .00006232  00000+0  67329-3 0  9998", "line2": "2 30418  98.8399 152.5922 0111111  98.2521  78.6263 14.84284214  6739"}}, "geometry": {"type": "Point", "coordinates": [169.2921879326668, -60.99434383688164]}}, {"type": "Feature", "properties": {"norad_id": 30419, "name": "FENGYUN 1C DEB", "group": "fengyun-1c-debris", "lat": 80.21130894733261, "lon": -169.72962729702667, "alt_km": 820.5899557106768, "timestamp": "2025-12-18T13:51:49.960142+00:00", "meta": {"OBJECT_NAME": "FENGYUN 1C DEB", "OBJECT_ID": "1999-025AEJ", "EPOCH": "2025-12-18T03:19:21.242784", "MEAN_MOTION": 14.18056733, "ECCENTRICITY": 0.00529313, "INCLINATION": 99.2408, "RA_OF_ASC_NODE": 299.1455, "ARG_OF_PERICENTER": 10.0215, "MEAN_ANOMALY": 1.6091, "EPHEMERIS_TYPE": 0, "CLASSIFICATION_TYPE": "U", "NORAD_CAT_ID": 30419, "ELEMENT_SET_NO": 999, "REV_AT_EPOCH": 97425, "BSTAR": 0.00068130667, "MEAN_MOTION_DOT": 1.368e-05, "MEAN_MOTION_DDOT": 0}, "tle": {"line1": "1 30419U 99025AEJ 25352.13844031  .00001368  00000+0  68131-3 0  9992", "line2": "2 30419  99.2408 299.1455 0052931  10.0215   1.6091 14.18056733974257"}}, "geometry": {"type": "Point", "coordinates": [-169.72962729702667, 80.21130894733261]}}, {"type": "Feature", "properties": {"norad_id": 30432, "name": "FENGYUN 1C DEB", "group": "fengyun-1c-debris", "lat": -19.25976180806785, "lon": 68.52440753448708, "alt_km": 792.3800993393788, "timestamp": "2025-12-18T13:51:49.960153+00:00", "meta": {"OBJECT_NAME": "FENGYUN 1C DEB", "OBJECT_ID": "1999-025AET", "EPOCH": "2025-12-18T04:36:03.181536", "MEAN_MOTION": 14.40704453, "ECCENTRICITY": 0.00826503, "INCLINATION": 98.8357, "RA_OF_ASC_NODE": 251.2414, "ARG_OF_PERICENTER": 322.8043, "MEAN_ANOMALY": 36.7436, "EPHEMERIS_TYPE": 0, "CLASSIFICATION_TYPE": "U", "NORAD_CAT_ID": 30432, "ELEMENT_SET_NO": 999, "REV_AT_EPOCH": 98813, "BSTAR": 0.00055751176, "MEAN_MOTION_DOT": 1.805e-05, "MEAN_MOTION_DDOT": 0}, "tle": {"line1": "1 30432U 99025AET 25352.19170349  .00001805  00000+0  55751-3 0  9997", "line2": "2 30432  98.8357 251.2414 0082650 322.8043  36.7436 14.40704453988136"}}, "geometry": {"type": "Point", "coordinates": [68.52440753448708, -19.25976180806785]}}, {"type": "Feature", "properties": {"norad_id": 30434, "name": "FENGYUN 1C DEB", "group": "fengyun-1c-debris", "lat": 21.107303200381637, "lon": -24.295466566147486, "alt_km": 1011.8496268626795, "timestamp": "2025-12-18T13:51:49.960163+00:00", "meta": {"OBJECT_NAME": "FENGYUN 1C DEB", "OBJECT_ID": "1999-025AEV", "EPOCH": "2025-12-18T05:13:47.470656", "MEAN_MOTION": 13.90655932, "ECCENTRICITY": 0.01209049, "INCLINATION": 98.9996, "RA_OF_ASC_NODE": 338.8633, "ARG_OF_PERICENTER": 216.2187, "MEAN_ANOMALY": 164.8707, "EPHEMERIS_TYPE": 0, "CLASSIFICATION_TYPE": "U", "NORAD_CAT_ID": 30434, "ELEMENT_SET_NO": 999, "REV_AT_EPOCH": 95783, "BSTAR": 0.00024118769, "MEAN_MOTION_DOT": 2.76e-06, "MEAN_MOTION_DDOT": 0}, "tle": {"line1": "1 30434U 99025AEV 25352.21791054  .00000276  00000+0  24119-3 0  9999", "line2": "2 30434  98.9996 338.8633 0120904 216.2187 164.8707 13.90655932957831"}}, "geometry": {"type": "Point", "coordinates": [-24.295466566147486, 21.107303200381637]}}]}